{"type": "FeatureCollection", "features": [ {"type": "Feature", "properties": {"norad_id": 17070, "name": "POLAR BEAR", "group": "nnss", "lat": 23.22720321900745, "lon": -176.57230311303888, "alt_km": 964.6981258861224, "timestamp": "2025-12-25T11:37:44.703951+00:00", "meta": {"OBJECT_NAME": "POLAR BEAR", "OBJECT_ID": "1986-088A", "EPOCH": "2025-12-25T00:02:02.554080", "MEAN_MOTION": 13.75253296, "ECCENTRICITY": 0.0041287, "INCLINATION": 89.617, "RA_OF_ASC_NODE": 183.2827, "ARG_OF_PERICENTER": 83.9988, "MEAN_ANOMALY": 69.2776, "EPHEMERIS_TYPE": 0, "CLASSIFICATION_TYPE": "U", "NORAD_CAT_ID": 17070, "ELEMENT_SET_NO": 999, "REV_AT_EPOCH": 96147, "BSTAR": 0.00010005, "MEAN_MOTION_DOT": 1.08e-06, "MEAN_MOTION_DDOT": 0}, "tle": {"line1": "1 17070U 86088A   25359.00141845  .00000108  00000+0  10005-3 0  9999", "line2": "2 17070  89.6170 183.2827 0041287  83.9988  69.2776 13.75253296961473"}}, "geometry": {"type": "Point", "coordinates": [-176.57230311303888, 23.22720321900745]}}, {"type": "Feature", "properties": {"norad_id": 18361, "name": "OSCAR 27", "group": "nnss", "lat": -28.51136158706414, "lon": 79.95183214225928, "alt_km": 1159.811822603182, "timestamp": "2025-12-25T11:37:44.703961+00:00", "meta": {"OBJECT_NAME": "OSCAR 27", "OBJECT_ID": "1987-080A", "EPOCH": "2025-12-25T02:50:43.252224", "MEAN_MOTION": 13.44909221, "ECCENTRICITY": 0.0103957, "INCLINATION": 90.3736, "RA_OF_ASC_NODE": 79.7351, "ARG_OF_PERICENTER": 188.1847, "MEAN_ANOMALY": 171.7609, "EPHEMERIS_TYPE": 0, "CLASSIFICATION_TYPE": "U", "NORAD_CAT_ID": 18361, "ELEMENT_SET_NO": 999, "REV_AT_EPOCH": 87723, "BSTAR": 0.00017449, "MEAN_MOTION_DOT": 1.14e-06, "MEAN_MOTION_DDOT": 0}, "tle": {"line1": "1 18361U 87080A   25359.11855616  .00000114  00000+0  17449-3 0  9992", "line2": "2 18361  90.3736  79.7351 0103957 188.1847 171.7609 13.44909221877236"}}, "geometry": {"type": "Point", "coordinates": [79.95183214225928, -28.51136158706414]}}, {"type": "Feature", "properties": {"norad_id": 18362, "name": "OSCAR 29", "group": "nnss", "lat": -36.89980665787655, "lon": 80.49041073951074, "alt_km": 1128.8849871867533, "timestamp": "2025-12-25T11:37:44.703972+00:00", "meta": {"OBJECT_NAME": "OSCAR 29", "OBJECT_ID": "1987-080B", "EPOCH": "2025-12-25T00:10:49.420416", "MEAN_MOTION": 13.44450714, "ECCENTRICITY": 0.0104754, "INCLINATION": 90.3749, "RA_OF_ASC_NODE": 80.1909, "ARG_OF_PERICENTER": 211.66, "MEAN_ANOMALY": 322.9629, "EPHEMERIS_TYPE": 0, "CLASSIFICATION_TYPE": "U", "NORAD_CAT_ID": 18362, "ELEMENT_SET_NO": 999, "REV_AT_EPOCH": 87674, "BSTAR": 0.0001663, "MEAN_MOTION_DOT": 1.08e-06, "MEAN_MOTION_DDOT": 0}, "tle": {"line1": "1 18362U 87080B   25359.00751644  .00000108  00000+0  16630-3 0  9991", "line2": "2 18362  90.3749  80.1909 0104754 211.6600 322.9629 13.44450714876746"}}, "geometry": {"type": "Point", "coordinates": [80.49041073951074, -36.89980665787655]}}, {"type": "Feature", "properties": {"norad_id": 19070, "name": "OSCAR 23", "group": "nnss", "lat": 51.78267671496023, "lon": 16.38012705026703, "alt_km": 1154.4394316345097, "timestamp": "2025-12-25T11:37:44.703982+00:00", "meta": {"OBJECT_NAME": "OSCAR 23", "OBJECT_ID": "1988-033A", "EPOCH": "2025-12-25T02:38:09.075264", "MEAN_MOTION": 13.27789056, "ECCENTRICITY": 0.0190489, "INCLINATION": 90.3203, "RA_OF_ASC_NODE": 16.7755, "ARG_OF_PERICENTER": 145.6115, "MEAN_ANOMALY": 278.2947, "EPHEMERIS_TYPE": 0, "CLASSIFICATION_TYPE": "U", "NORAD_CAT_ID": 19070, "ELEMENT_SET_NO": 999, "REV_AT_EPOCH": 82417, "BSTAR": 0.00010293, "MEAN_MOTION_DOT": 6.1e-07, "MEAN_MOTION_DDOT": 0}, "tle": {"line1": "1 19070U 88033A   25359.10982726  .00000061  00000+0  10293-3 0  9992", "line2": "2 19070  90.3203  16.7755 0190489 145.6115 278.2947 13.27789056824170"}}, "geometry": {"type": "Point", "coordinates": [16.38012705026703, 51.78267671496023]}}, {"type": "Feature", "properties": {"norad_id": 19071, "name": "OSCAR 32", "group": "nnss", "lat": 6.46670723884664, "lon": -163.04382691108776, "alt_km": 1049.2564975638543, "timestamp": "2025-12-25T11:37:44.703992+00:00", "meta": {"OBJECT_NAME": "OSCAR 32", "OBJECT_ID": "1988-033B", "EPOCH": "2025-12-25T01:46:19.026048", "MEAN_MOTION": 13.27955759, "ECCENTRICITY": 0.0189236, "INCLINATION": 90.3208, "RA_OF_ASC_NODE": 16.907, "ARG_OF_PERICENTER": 132.6407, "MEAN_ANOMALY": 237.0138, "EPHEMERIS_TYPE": 0, "CLASSIFICATION_TYPE": "U", "NORAD_CAT_ID": 19071, "ELEMENT_SET_NO": 999, "REV_AT_EPOCH": 82429, "BSTAR": 9.9554e-05, "MEAN_MOTION_DOT": 5.9e-07, "MEAN_MOTION_DDOT": 0}, "tle": {"line1": "1 19071U 88033B   25359.07383132  .00000059  00000+0  99554-4 0  9990", "line2": "2 19071  90.3208  16.9070 0189236 132.6407 237.0138 13.27955759824299"}}, "geometry": {"type": "Point", "coordinates": [-163.04382691108776, 6.46670723884664]}}, {"type": "Feature", "properties": {"norad_id": 19223, "name": "NOVA 2", "group": "nnss", "lat": 40.49665358323728, "lon": -101.75532679668538, "alt_km": 1190.98796129915, "timestamp": "2025-12-25T11:37:44.704002+00:00", "meta": {"OBJECT_NAME": "NOVA 2", "OBJECT_ID": "1988-052A", "EPOCH": "2025-12-25T03:58:04.448064", "MEAN_MOTION": 13.22937229, "ECCENTRICITY": 0.0029518, "INCLINATION": 89.9863, "RA_OF_ASC_NODE": 78.2568, "ARG_OF_PERICENTER": 342.4679, "MEAN_ANOMALY": 77.4175, "EPHEMERIS_TYPE": 0, "CLASSIFICATION_TYPE": "U", "NORAD_CAT_ID": 19223, "ELEMENT_SET_NO": 999, "REV_AT_EPOCH": 81112, "BSTAR": 0.00013323, "MEAN_MOTION_DOT": 6.5e-07, "MEAN_MOTION_DDOT": 0}, "tle": {"line1": "1 19223U 88052A   25359.16532926  .00000065  00000+0  13323-3 0  9993", "line2": "2 19223  89.9863  78.2568 0029518 342.4679  77.4175 13.22937229811122"}}, "geometry": {"type": "Point", "coordinates": [-101.75532679668538, 40.49665358323728]}}, {"type": "Feature", "properties": {"norad_id": 19419, "name": "OSCAR 25", "group": "nnss", "lat": 37.31455843874217, "lon": 20.2597533961338, "alt_km": 1167.2671736554194, "timestamp": "2025-12-25T11:37:44.704012+00:00", "meta": {"OBJECT_NAME": "OSCAR 25", "OBJECT_ID": "1988-074A", "EPOCH": "2025-12-25T01:01:12.412128", "MEAN_MOTION": 13.42625537, "ECCENTRICITY": 0.00952, "INCLINATION": 90.0336, "RA_OF_ASC_NODE": 20.2839, "ARG_OF_PERICENTER": 210.2725, "MEAN_ANOMALY": 211.9682, "EPHEMERIS_TYPE": 0, "CLASSIFICATION_TYPE": "U", "NORAD_CAT_ID": 19419, "ELEMENT_SET_NO": 999, "REV_AT_EPOCH": 82805, "BSTAR": 0.00012533, "MEAN_MOTION_DOT": 8.2e-07, "MEAN_MOTION_DDOT": 0}, "tle": {"line1": "1 19419U 88074A   25359.04250477  .00000082  00000+0  12533-3 0  9990", "line2": "2 19419  90.0336  20.2839 0095200 210.2725 211.9682 13.42625537828056"}}, "geometry": {"type": "Point", "coordinates": [20.2597533961338, 37.31455843874217]}}, {"type": "Feature", "properties": {"norad_id": 19420, "name": "OSCAR 31", "group": "nnss", "lat": -79.42620838897072, "lon": 20.827247557520863, "alt_km": 1091.2705906080791, "timestamp": "2025-12-25T11:37:44.704022+00:00", "meta": {"OBJECT_NAME": "OSCAR 31", "OBJECT_ID": "1988-074B", "EPOCH": "2025-12-25T01:25:51.942144", "MEAN_MOTION": 13.42586559, "ECCENTRICITY": 0.0093596, "INCLINATION": 90.0354, "RA_OF_ASC_NODE": 20.636, "ARG_OF_PERICENTER": 204.3707, "MEAN_ANOMALY": 182.6411, "EPHEMERIS_TYPE": 0, "CLASSIFICATION_TYPE": "U", "NORAD_CAT_ID": 19420, "ELEMENT_SET_NO": 999, "REV_AT_EPOCH": 82816, "BSTAR": 0.00010569, "MEAN_MOTION_DOT": 7e-07, "MEAN_MOTION_DDOT": 0}, "tle": {"line1": "1 19420U 88074B   25359.05962896  .00000070  00000+0  10569-3 0  9992", "line2": "2 19420  90.0354  20.6360 0093596 204.3707 182.6411 13.42586559828167"}}, "geometry": {"type": "Point", "coordinates": [20.827247557520863, -79.42620838897072]}}]}